COMMENT,ORIGINATOR,NORAD_CAT_ID,OBJECT_NAME,OBJECT_TYPE,CLASSIFICATION_TYPE,INTLDES,EPOCH,EPOCH_MICROSECONDS,MEAN_MOTION,ECCENTRICITY,INCLINATION,RA_OF_ASC_NODE,ARG_OF_PERICENTER,MEAN_ANOMALY,EPHEMERIS_TYPE,ELEMENT_SET_NO,REV_AT_EPOCH,BSTAR,MEAN_MOTION_DOT,MEAN_MOTION_DDOT,FILE,TLE_LINE0,TLE_LINE1,TLE_LINE2,OBJECT_ID,OBJECT_NUMBER,SEMIMAJOR_AXIS,PERIOD,APOGEE,PERIGEE,DECAYED
"GENERATED VIA SPACETRACK.ORG API","18 SPCS","48884","SPACEBEE-101","PAYLOAD","U","21059F","2021-09-03 01:12:38","747808","15.12057525","0.0009483","97.5213","13.8129","26.6834","333.4882","0","999","1046","0.00011865","0.00001977","0","3107773","0 SPACEBEE-101","1 48884U 21059F   21246.05044847  .00001977  00000-0  11865-3 0  9994","2 48884  97.5213  13.8129 0009483  26.6834 333.4882 15.12057525 10463","2021-059F","48884","6908.063","95.234","536.479","523.377","0"
"GENERATED VIA SPACETRACK.ORG API","18 SPCS","48884","SPACEBEE-101","PAYLOAD","U","21059F","2021-09-03 07:33:49","550976","15.12057147","0.0009458","97.5213","14.0736","25.841","334.3291","0","999","1050","0.00010622","0.00001763","0","3107903","0 SPACEBEE-101","1 48884U 21059F   21246.31515684  .00001763  00000-0  10622-3 0  9998","2 48884  97.5213  14.0736 0009458  25.8410 334.3291 15.12057147 10502","2021-059F","48884","6908.064","95.234","536.463","523.396","0"
"GENERATED VIA SPACETRACK.ORG API","18 SPCS","48884","SPACEBEE-101","PAYLOAD","U","21059F","2021-09-03 13:55:00","234912","15.1205869","0.0009435","97.5214","14.3343","25.0206","335.148","0","999","1054","0.00011097","0.00001845","0","3108332","0 SPACEBEE-101","1 48884U 21059F   21246.57986383  .00001845  00000-0  11097-3 0  9992","2 48884  97.5214  14.3343 0009435  25.0206 335.1480 15.12058690 10547","2021-059F","48884","6908.060","95.234","536.442","523.407","0"
"GENERATED VIA SPACETRACK.ORG API","18 SPCS","48884","SPACEBEE-101","PAYLOAD","U","21059F","2021-09-04 02:37:21","614016","15.12060747","0.0009386","97.5215","14.8556","23.3056","336.8598","0","999","1062","0.00011207","0.00001864","0","3108535","0 SPACEBEE-101","1 48884U 21059F   21247.10927794  .00001864  00000-0  11207-3 0  9997","2 48884  97.5215  14.8556 0009386  23.3056 336.8598 15.12060747 10621","2021-059F","48884","6908.053","95.234","536.402","523.434","0"
"GENERATED VIA SPACETRACK.ORG API","18 SPCS","48884","SPACEBEE-101","PAYLOAD","U","21059F","2021-09-04 02:37:21","614016","15.12060747","0.0009386","97.5215","14.8556","23.3056","336.8598","0","999","1062","0.00011207","0.00001864","0","3108585","0 SPACEBEE-101","1 48884U 21059F   21247.10927794  .00001864  00000-0  11207-3 0  9997","2 48884  97.5215  14.8556 0009386  23.3056 336.8598 15.12060747 10621","2021-059F","48884","6908.053","95.234","536.402","523.434","0"
"GENERATED VIA SPACETRACK.ORG API","18 SPCS","48884","SPACEBEE-101","PAYLOAD","U","21059F","2021-09-04 13:44:25","260576","15.12062654","0.0009347","97.5216","15.3118","21.8117","338.351","0","999","1069","0.00011395","0.00001896","0","3108751","0 SPACEBEE-101","1 48884U 21059F   21247.57251459  .00001896  00000-0  11395-3 0  9999","2 48884  97.5216  15.3118 0009347  21.8117 338.3510 15.12062654 10697","2021-059F","48884","6908.048","95.234","536.369","523.456","0"
"GENERATED VIA SPACETRACK.ORG API","18 SPCS","48884","SPACEBEE-101","PAYLOAD","U","21059F","2021-09-05 07:12:39","486528","15.12065184","0.0009279","97.5216","16.0286","19.3792","340.779","0","999","1080","0.00011242","0.0000187","0","3109116","0 SPACEBEE-101","1 48884U 21059F   21248.30045702  .00001870  00000-0  11242-3 0  9996","2 48884  97.5216  16.0286 0009279  19.3792 340.7790 15.12065184 10807","2021-059F","48884","6908.040","95.234","536.315","523.495","0"
"GENERATED VIA SPACETRACK.ORG API","18 SPCS","48884","SPACEBEE-101","PAYLOAD","U","21059F","2021-09-05 07:12:39","486528","15.12065184","0.0009279","97.5216","16.0286","19.3792","340.779","0","999","1080","0.00011242","0.0000187","0","3109252","0 SPACEBEE-101","1 48884U 21059F   21248.30045702  .00001870  00000-0  11242-3 0  9996","2 48884  97.5216  16.0286 0009279  19.3792 340.7790 15.12065184 10807","2021-059F","48884","6908.040","95.234","536.315","523.495","0"
"GENERATED VIA SPACETRACK.ORG API","18 SPCS","48884","SPACEBEE-101","PAYLOAD","U","21059F","2021-09-05 15:09:07","710336","15.12066666","0.0009244","97.5217","16.3544","18.2761","341.88","0","999","1085","0.0001146","0.00001908","0","3109348","0 SPACEBEE-101","1 48884U 21059F   21248.63133924  .00001908  00000-0  11460-3 0  9990","2 48884  97.5217  16.3544 0009244  18.2761 341.8800 15.12066666 10859","2021-059F","48884","6908.035","95.234","536.286","523.515","0"
"GENERATED VIA SPACETRACK.ORG API","18 SPCS","48884","SPACEBEE-101","PAYLOAD","U","21059F","2021-09-06 03:51:28","857024","15.12068525","0.0009191","97.5218","16.8757","16.4364","343.7163","0","999","1093","0.00011407","0.00001899","0","3109699","0 SPACEBEE-101","1 48884U 21059F   21249.16075066  .00001899  00000-0  11407-3 0  9991","2 48884  97.5218  16.8757 0009191  16.4364 343.7163 15.12068525 10939","2021-059F","48884","6908.030","95.234","536.244","523.545","0"
"GENERATED VIA SPACETRACK.ORG API","18 SPCS","48884","SPACEBEE-101","PAYLOAD","U","21059F","2021-09-06 19:44:25","145664","15.12070969","0.0009123","97.5219","17.5274","14.1651","345.9834","0","999","1103","0.00011091","0.00001844","0","3109923","0 SPACEBEE-101","1 48884U 21059F   21249.82251326  .00001844  00000-0  11091-3 0  9998","2 48884  97.5219  17.5274 0009123  14.1651 345.9834 15.12070969 11037","2021-059F","48884","6908.022","95.234","536.189","523.585","0"
"GENERATED VIA SPACETRACK.ORG API","18 SPCS","48884","SPACEBEE-101","PAYLOAD","U","21059F","2021-09-07 00:30:18","16704","15.12071769","0.0009109","97.5219","17.7229","13.4701","346.6771","0","999","1106","0.00011114","0.00001848","0","3109964","0 SPACEBEE-101","1 48884U 21059F   21250.02104186  .00001848  00000-0  11114-3 0  9993","2 48884  97.5219  17.7229 0009109  13.4701 346.6771 15.12071769 11061","2021-059F","48884","6908.020","95.234","536.177","523.592","0"
"GENERATED VIA SPACETRACK.ORG API","18 SPCS","48884","SPACEBEE-101","PAYLOAD","U","21059F","2021-09-07 08:26:46","139424","15.12073155","0.0009079","97.522","18.0488","12.3186","347.8264","0","999","1111","0.00011237","0.0000187","0","3110255","0 SPACEBEE-101","1 48884U 21059F   21250.35192291  .00001870  00000-0  11237-3 0  9994","2 48884  97.5220  18.0488 0009079  12.3186 347.8264 15.12073155 11112","2021-059F","48884","6908.016","95.233","536.152","523.609","0"
"GENERATED VIA SPACETRACK.ORG API","18 SPCS","48884","SPACEBEE-101","PAYLOAD","U","21059F","2021-09-07 14:47:56","593536","15.12074234","0.0009055","97.522","18.3095","11.4238","348.7197","0","999","1115","0.00011207","0.00001865","0","3110443","0 SPACEBEE-101","1 48884U 21059F   21250.61662724  .00001865  00000-0  11207-3 0  9997","2 48884  97.5220  18.3095 0009055  11.4238 348.7197 15.12074234 11159","2021-059F","48884","6908.012","95.233","536.132","523.622","0"
"GENERATED VIA SPACETRACK.ORG API","18 SPCS","48884","SPACEBEE-101","PAYLOAD","U","21059F","2021-09-08 01:54:59","857344","15.12076189","0.0009012","97.5221","18.7657","9.7863","350.3541","0","999","1122","0.0001124","0.0000187","0","3110522","0 SPACEBEE-101","1 48884U 21059F   21251.07985946  .00001870  00000-0  11240-3 0  9995","2 48884  97.5221  18.7657 0009012   9.7863 350.3541 15.12076189 11226","2021-059F","48884","6908.006","95.233","536.097","523.646","0"
"GENERATED VIA SPACETRACK.ORG API","18 SPCS","48884","SPACEBEE-101","PAYLOAD","U","21059F","2021-09-08 03:30:17","442144","15.12077542","0.000901","97.5221","18.8309","9.5564","350.5837","0","999","1123","0.00012326","0.00002057","0","3110975","0 SPACEBEE-101","1 48884U 21059F   21251.14603521  .00002057  00000-0  12326-3 0  9993","2 48884  97.5221  18.8309 0009010   9.5564 350.5837 15.12077542 11230","2021-059F","48884","6908.002","95.233","536.091","523.643","0"
"GENERATED VIA SPACETRACK.ORG API","18 SPCS","48884","SPACEBEE-101","PAYLOAD","U","21059F","2021-09-08 14:37:20","667072","15.12078962","0.0008967","97.5223","19.2871","7.9655","352.1716","0","999","1130","0.00011802","0.00001967","0","3111252","0 SPACEBEE-101","1 48884U 21059F   21251.60926698  .00001967  00000-0  11802-3 0  9994","2 48884  97.5223  19.2871 0008967   7.9655 352.1716 15.12078962 11303","2021-059F","48884","6907.998","95.233","536.057","523.668","0"
"GENERATED VIA SPACETRACK.ORG API","18 SPCS","48884","SPACEBEE-101","PAYLOAD","U","21059F","2021-09-09 08:05:34","150848","15.12081645","0.0008881","97.5228","20.0039","5.9068","354.2265","0","999","1141","0.00010319","0.00001712","0","3111503","0 SPACEBEE-101","1 48884U 21059F   21252.33720082  .00001712  00000-0  10319-3 0  9994","2 48884  97.5228  20.0039 0008881   5.9068 354.2265 15.12081645 11411","2021-059F","48884","6907.990","95.233","535.990","523.720","0"
"GENERATED VIA SPACETRACK.ORG API","18 SPCS","48884","SPACEBEE-101","PAYLOAD","U","21059F","2021-09-09 08:05:34","150848","15.12081645","0.0008881","97.5228","20.0039","5.9068","354.2265","0","999","1141","0.00010319","0.00001712","0","3111654","0 SPACEBEE-101","1 48884U 21059F   21252.33720082  .00001712  00000-0  10319-3 0  9994","2 48884  97.5228  20.0039 0008881   5.9068 354.2265 15.12081645 11411","2021-059F","48884","6907.990","95.233","535.990","523.720","0"
"GENERATED VIA SPACETRACK.ORG API","18 SPCS","48884","SPACEBEE-101","PAYLOAD","U","21059F","2021-09-09 19:12:37","224576","15.12083481","0.0008833","97.5228","20.4602","4.2876","355.8428","0","999","1148","0.00010301","0.00001709","0","3111873","0 SPACEBEE-101","1 48884U 21059F   21252.80043084  .00001709  00000-0  10301-3 0  9993","2 48884  97.5228  20.4602 0008833   4.2876 355.8428 15.12083481 11482","2021-059F","48884","6907.984","95.233","535.951","523.747","0"
